HST                     
1 20580U 90037B   26068.15977042  .00009063  00000+0  30023-3 0  9999
2 20580  28.4717  43.6133 0001837 120.9992 239.0785 15.29473555773239
STARLINK-31222          
1 58828U 24017C   26068.64154586 -.00000089  00000+0  91125-5 0  9996
2 58828  53.1609 204.2006 0001163 103.0060 257.1070 15.30187135120056
