[{"OBJECT_NAME":"HST","OBJECT_ID":"1990-037B","EPOCH":"2026-03-09T03:50:04.164288","MEAN_MOTION":15.29473555,"ECCENTRICITY":0.00018372,"INCLINATION":28.4717,"RA_OF_ASC_NODE":43.6133,"ARG_OF_PERICENTER":120.9992,"MEAN_ANOMALY":239.0785,"EPHEMERIS_TYPE":0,"CLASSIFICATION_TYPE":"U","NORAD_CAT_ID":20580,"ELEMENT_SET_NO":999,"REV_AT_EPOCH":77323,"BSTAR":0.0003002261,"MEAN_MOTION_DOT":9.063e-5,"MEAN_MOTION_DDOT":0},{"OBJECT_NAME":"STARLINK-31222","OBJECT_ID":"2024-017C","EPOCH":"2026-03-09T15:23:49.562304","MEAN_MOTION":15.30187135,"ECCENTRICITY":0.0001163,"INCLINATION":53.1609,"RA_OF_ASC_NODE":204.2006,"ARG_OF_PERICENTER":103.006,"MEAN_ANOMALY":257.107,"EPHEMERIS_TYPE":0,"CLASSIFICATION_TYPE":"U","NORAD_CAT_ID":58828,"ELEMENT_SET_NO":999,"REV_AT_EPOCH":12005,"BSTAR":9.1125e-6,"MEAN_MOTION_DOT":-8.9e-7,"MEAN_MOTION_DDOT":0}]
